OBJECT_NAME,OBJECT_ID,EPOCH,MEAN_MOTION,ECCENTRICITY,INCLINATION,RA_OF_ASC_NODE,ARG_OF_PERICENTER,MEAN_ANOMALY,EPHEMERIS_TYPE,CLASSIFICATION_TYPE,NORAD_CAT_ID,ELEMENT_SET_NO,REV_AT_EPOCH,BSTAR,MEAN_MOTION_DOT,MEAN_MOTION_DDOT
STARLINK-4028,2022-053X,2023-11-28T02:53:48.118848,15.08838820,.000159,53.2162,281.6722,89.0741,271.0433,0,U,52677,999,8505,-.15787E-5,-.313E-5,0
STARLINK-4074,2022-053Y,2023-11-28T01:44:54.594240,15.08827969,.0001504,53.2177,281.9866,117.3681,242.7464,0,U,52678,999,8504,.61317E-3,.9481E-4,0
STARLINK-4031,2022-053Z,2023-11-28T04:13:16.507200,15.08842895,.0001713,53.2179,281.4209,88.5991,271.5198,0,U,52679,999,8506,.17862E-3,.2556E-4,0
STARLINK-3774,2022-053AA,2023-11-28T03:00:27.211680,15.08866458,.0002117,53.2190,281.6515,72.4705,287.6519,0,U,52680,999,8505,.11214E-3,.1498E-4,0
STARLINK-4068,2022-053AB,2023-11-28T02:32:35.945376,15.08852298,.0001887,53.2164,281.7318,117.1082,243.0103,0,U,52681,999,8505,.10712E-2,.16807E-3,0
STARLINK-4017,2022-053AC,2023-11-28T02:48:29.699424,15.08858284,.0001602,53.2158,281.6838,107.1667,252.9501,0,U,52682,999,8505,.12612E-2,.19851E-3,0
STARLINK-4039,2022-053AD,2023-11-28T02:21:58.991616,15.08836318,.0002249,53.2178,281.7615,121.7862,238.3349,0,U,52683,999,8505,-.20158E-3,-.3495E-4,0
STARLINK-4014,2022-053AE,2023-11-28T04:18:35.529696,15.08866511,.0002049,53.2172,281.4027,75.9670,284.1550,0,U,52684,999,8507,.11936E-2,.18773E-3,0
STARLINK-4029,2022-053AF,2023-11-28T02:11:24.247968,15.08851006,.000195,53.2185,281.7962,117.8071,242.3119,0,U,52685,999,8505,.12194E-2,.19178E-3,0
STARLINK-4005,2022-053AG,2023-11-28T07:13:26.844960,15.08913557,.0001919,53.2159,280.8618,88.4025,271.7187,0,U,52686,999,8508,.25072E-2,.39921E-3,0
STARLINK-3981,2022-053AH,2023-11-28T02:06:04.608576,15.08864065,.0001703,53.2172,281.8161,113.0734,247.0438,0,U,52687,999,8505,.71266E-4,.847E-5,0
STARLINK-4032,2022-053AJ,2023-11-28T02:00:46.173600,15.08839017,.0002063,53.2183,281.7105,118.4593,241.6607,0,U,52688,999,8505,-.20047E-3,-.3477E-4,0
STARLINK-4078,2022-053AK,2023-11-28T01:50:11.616576,15.08862525,.0002148,53.2167,281.8638,117.0967,243.0244,0,U,52689,999,8505,.59929E-3,.9268E-4,0
STARLINK-4035,2022-053AL,2023-11-28T03:52:04.073664,15.08854872,.0001497,53.2178,281.4882,103.9263,256.1896,0,U,52690,999,8506,.66108E-4,.765E-5,0
STARLINK-3945,2022-053AM,2023-11-28T07:04:16.248864,15.08857063,.0001778,53.2184,281.1357,107.6972,252.4214,0,U,52691,999,8508,.85826E-3,.13404E-3,0
STARLINK-3993,2022-053AN,2023-11-28T02:59:04.174368,15.08861438,.0002136,53.2163,281.3820,83.7326,276.3909,0,U,52692,999,8506,.22047E-2,.34996E-3,0
STARLINK-3946,2022-053AP,2023-11-28T03:09:42.109632,15.08872387,.0001715,53.2162,281.6197,84.1907,275.9281,0,U,52693,999,8506,.21776E-2,.3457E-3,0
STARLINK-4072,2022-053AQ,2023-11-28T06:41:38.256000,15.08863480,.0001907,53.2185,280.9531,113.7628,246.3564,0,U,52694,999,8508,.20928E-3,.3046E-4,0
STARLINK-4041,2022-053AR,2023-11-28T02:50:26.908800,15.08847104,.0001704,53.2155,286.4800,116.0808,244.0360,0,U,52695,999,8499,.72118E-3,.1121E-3,0
STARLINK-4025,2022-053AS,2023-11-28T01:39:34.356960,15.08853147,.0001609,53.2177,281.8988,89.7353,270.3824,0,U,52696,999,8505,-.63665E-4,-.1302E-4,0
STARLINK-4018,2022-053AT,2023-11-28T01:53:34.663488,15.08843337,.0001847,53.2169,286.8545,63.7956,296.3226,0,U,52697,999,8498,.91531E-3,.14311E-3,0
STARLINK-4030,2022-053AU,2023-11-28T02:08:05.475264,15.08864797,.0001764,53.2196,286.7968,87.1215,272.9979,0,U,52698,999,8498,.14685E-2,.23176E-3,0
STARLINK-3987,2022-053AV,2023-11-28T01:37:37.891488,15.08853429,.0002149,53.2175,276.9267,121.2575,238.8628,0,U,52699,999,8511,.21348E-2,.33864E-3,0
STARLINK-4034,2022-053AW,2023-11-28T02:45:07.058592,15.08855886,.0001444,53.2168,286.3380,86.0800,274.0357,0,U,52700,999,8499,.48398E-3,.7426E-4,0
STARLINK-4003,2022-053AX,2023-11-28T02:44:29.918688,15.08864388,.0001767,53.2170,271.6959,108.8407,251.2777,0,U,52701,999,8519,.22355E-3,.3274E-4,0
STARLINK-4033,2022-053AY,2023-11-28T01:52:11.024832,15.08835864,.0001406,53.2177,286.8874,102.3051,257.8099,0,U,52702,999,8498,-.1738E-3,-.3053E-4,0
STARLINK-4020,2022-053AZ,2023-11-28T02:28:36.895584,15.08864270,.0002297,53.2184,271.7575,58.5566,301.5650,0,U,52703,999,8519,.32745E-3,.493E-4,0
STARLINK-3999,2022-053BA,2023-11-28T02:49:48.854784,15.08847206,.0001933,53.2180,271.6882,106.2836,253.8369,0,U,52704,999,8519,.38221E-3,.5801E-4,0
STARLINK-3844,2022-053BB,2023-11-28T02:33:55.466208,15.08844927,.0002383,53.2185,271.7304,66.5043,293.6199,0,U,52705,999,8519,.49489E-3,.7598E-4,0
STARLINK-3970,2022-053BC,2023-11-27T20:17:40.208928,15.08837337,.0001858,53.2180,272.9027,91.9214,268.1990,0,U,52706,999,8558,-.11434E-3,-.2107E-4,0
