STARLINK-4028           
1 52677U 22053X   23332.12069582 -.00000313  00000+0 -15787-5 0  9996
2 52677  53.2162 281.6722 0001590  89.0741 271.0433 15.08838820 85051
STARLINK-4074           
1 52678U 22053Y   23332.07285410  .00009481  00000+0  61317-3 0  9992
2 52678  53.2177 281.9866 0001504 117.3681 242.7464 15.08827969 85043
STARLINK-4031           
1 52679U 22053Z   23332.17588550  .00002556  00000+0  17862-3 0  9997
2 52679  53.2179 281.4209 0001713  88.5991 271.5198 15.08842895 85068
STARLINK-3774           
1 52680U 22053AA  23332.12531495  .00001498  00000+0  11214-3 0  9999
2 52680  53.2190 281.6515 0002117  72.4705 287.6519 15.08866458 85054
STARLINK-4068           
1 52681U 22053AB  23332.10597159  .00016807  00000+0  10712-2 0  9998
2 52681  53.2164 281.7318 0001887 117.1082 243.0103 15.08852298 85058
STARLINK-4017           
1 52682U 22053AC  23332.11701041  .00019851  00000+0  12612-2 0  9990
2 52682  53.2158 281.6838 0001602 107.1667 252.9501 15.08858284 85053
STARLINK-4039           
1 52683U 22053AD  23332.09859944 -.00003495  00000+0 -20158-3 0  9998
2 52683  53.2178 281.7615 0002249 121.7862 238.3349 15.08836318 85059
STARLINK-4014           
1 52684U 22053AE  23332.17957789  .00018773  00000+0  11936-2 0  9990
2 52684  53.2172 281.4027 0002049  75.9670 284.1550 15.08866511 85076
STARLINK-4029           
1 52685U 22053AF  23332.09125287  .00019178  00000+0  12194-2 0  9999
2 52685  53.2185 281.7962 0001950 117.8071 242.3119 15.08851006 85051
STARLINK-4005           
1 52686U 22053AG  23332.30100515  .00039921  00000+0  25072-2 0  9998
2 52686  53.2159 280.8618 0001919  88.4025 271.7187 15.08913557 85082
STARLINK-3981           
1 52687U 22053AH  23332.08755334  .00000847  00000+0  71266-4 0  9992
2 52687  53.2172 281.8161 0001703 113.0734 247.0438 15.08864065 85056
STARLINK-4032           
1 52688U 22053AJ  23332.08386775 -.00003477  00000+0 -20047-3 0  9996
2 52688  53.2183 281.7105 0002063 118.4593 241.6607 15.08839017 85055
STARLINK-4078           
1 52689U 22053AK  23332.07652334  .00009268  00000+0  59929-3 0  9996
2 52689  53.2167 281.8638 0002148 117.0967 243.0244 15.08862525 85057
STARLINK-4035           
1 52690U 22053AL  23332.16115826  .00000765  00000+0  66108-4 0  9999
2 52690  53.2178 281.4882 0001497 103.9263 256.1896 15.08854872 85062
STARLINK-3945           
1 52691U 22053AM  23332.29463251  .00013404  00000+0  85826-3 0  9993
2 52691  53.2184 281.1357 0001778 107.6972 252.4214 15.08857063 85084
STARLINK-3993           
1 52692U 22053AN  23332.12435387  .00034996  00000+0  22047-2 0  9999
2 52692  53.2163 281.3820 0002136  83.7326 276.3909 15.08861438 85060
STARLINK-3946           
1 52693U 22053AP  23332.13173738  .00034570  00000+0  21776-2 0  9996
2 52693  53.2162 281.6197 0001715  84.1907 275.9281 15.08872387 85065
STARLINK-4072           
1 52694U 22053AQ  23332.27891500  .00003046  00000+0  20928-3 0  9999
2 52694  53.2185 280.9531 0001907 113.7628 246.3564 15.08863480 85089
STARLINK-4041           
1 52695U 22053AR  23332.11836700  .00011210  00000+0  72118-3 0  9994
2 52695  53.2155 286.4800 0001704 116.0808 244.0360 15.08847104 84991
STARLINK-4025           
1 52696U 22053AS  23332.06914765 -.00001302  00000+0 -63665-4 0  9998
2 52696  53.2177 281.8988 0001609  89.7353 270.3824 15.08853147 85056
STARLINK-4018           
1 52697U 22053AT  23332.07887342  .00014311  00000+0  91531-3 0  9994
2 52697  53.2169 286.8545 0001847  63.7956 296.3226 15.08843337 84982
STARLINK-4030           
1 52698U 22053AU  23332.08895226  .00023176  00000+0  14685-2 0  9999
2 52698  53.2196 286.7968 0001764  87.1215 272.9979 15.08864797 84985
STARLINK-3987           
1 52699U 22053AV  23332.06779967  .00033864  00000+0  21348-2 0  9990
2 52699  53.2175 276.9267 0002149 121.2575 238.8628 15.08853429 85111
STARLINK-4034           
1 52700U 22053AW  23332.11466503  .00007426  00000+0  48398-3 0  9998
2 52700  53.2168 286.3380 0001444  86.0800 274.0357 15.08855886 84998
STARLINK-4003           
1 52701U 22053AX  23332.11423517  .00003274  00000+0  22355-3 0  9999
2 52701  53.2170 271.6959 0001767 108.8407 251.2777 15.08864388 85198
STARLINK-4033           
1 52702U 22053AY  23332.07790538 -.00003053  00000+0 -17380-3 0  9994
2 52702  53.2177 286.8874 0001406 102.3051 257.8099 15.08835864 84986
STARLINK-4020           
1 52703U 22053AZ  23332.10320481  .00004930  00000+0  32745-3 0  9990
2 52703  53.2184 271.7575 0002297  58.5566 301.5650 15.08864270 85195
STARLINK-3999           
1 52704U 22053BA  23332.11792656  .00005801  00000+0  38221-3 0  9992
2 52704  53.2180 271.6882 0001933 106.2836 253.8369 15.08847206 85195
STARLINK-3844           
1 52705U 22053BB  23332.10689197  .00007598  00000+0  49489-3 0  9990
2 52705  53.2185 271.7304 0002383  66.5043 293.6199 15.08844927 85199
STARLINK-3970           
1 52706U 22053BC  23331.84560427 -.00002107  00000+0 -11434-3 0  9997
2 52706  53.2180 272.9027 0001858  91.9214 268.1990 15.08837337 85584
